STARLINK-2210
1 27777C 21017BH  21325.14862502  .00005750  00000-0  38536-3 0  3252
2 27777  53.0551  57.5754 0001129  81.6631 248.5994 15.06384438    18
